GLOBALSTAR M063         
1 26081U 00008A   25104.77845674 -.00000051  00000+0  47006-3 0  9991
2 26081  51.9946 278.5697 0004687 184.6355 189.0552 11.86168869150059
GLOBALSTAR M062         
1 26082U 00008B   25105.49504581 -.00000029  00000+0  49341-3 0  9990
2 26082  51.9844 280.1424 0006633 344.4048  32.6352 12.43464261151323
GLOBALSTAR M060         
1 26083U 00008C   25105.51736455 -.00000130  00000+0 -39091-3 0  9996
2 26083  52.0015 231.2167 0002720   6.0176  73.0616 12.17658899144904
GLOBALSTAR M064         
1 26084U 00008D   25105.48935479 -.00000066  00000+0  24859-3 0  9993
2 26084  52.0068  16.2612 0001195 320.7957  39.2789 11.88532466159759
GLOBALSTAR M065         
1 31571U 07020A   25104.94675517 -.00000083  00000+0  11427-3 0  9991
2 31571  51.9899  58.7486 0010202 165.1697 265.6939 12.62004900825423
GLOBALSTAR M069         
1 31573U 07020C   25104.96503145 -.00000055  00000+0  31266-3 0  9994
2 31573  51.9974  28.1818 0001176  55.3931  24.0803 12.42144474826315
GLOBALSTAR M072         
1 31574U 07020D   25105.53812463 -.00000047  00000+0  50468-3 0  9991
2 31574  51.9910 158.7567 0001302 192.7726 310.9282 11.91648335824332
GLOBALSTAR M071         
1 31576U 07020F   25105.55536600 -.00000139  00000+0 -47531-3 0  9991
2 31576  52.0079  46.3273 0001000   5.8964 180.2411 12.18252231826218
